NORAD_CAT_ID,OBJECT_NAME,OBJECT_TYPE,EPOCH,MEAN_MOTION,ECCENTRICITY,INCLINATION,RA_OF_ASC_NODE,ARG_OF_PERICENTER,MEAN_ANOMALY,BSTAR,MEAN_MOTION_DOT,MEAN_MOTION_DDOT,TLE_LINE0,TLE_LINE1,TLE_LINE2,SEMIMAJOR_AXIS,PERIOD,APOGEE,PERIGEE,DECAYED
56484.0,STARLINK-6221,PAYLOAD,2024-06-06 11:25:44,14.98331893,0.0003065,69.9995,301.1022,268.1002,91.9806,2.6976e-05,2.29e-06,0.0,0 STARLINK-6221,1 56484U 23064AN  24158.47621413  .00000229  00000-0  26976-4 0  9997,2 56484  69.9995 301.1022 0003065 268.1002  91.9806 14.98331893 60051,6950.187,96.107,574.182,569.922,0.0
56484.0,STARLINK-6221,PAYLOAD,2024-06-07 08:15:29,14.98330519,0.0002962,69.9994,298.914,269.9537,90.1283,0.00021662,2.493e-05,0.0,0 STARLINK-6221,1 56484U 23064AN  24159.34409103  .00002493  00000-0  21662-3 0  9995,2 56484  69.9994 298.9140 0002962 269.9537  90.1283 14.98330519 59828,6950.191,96.107,574.115,569.998,0.0
56484.0,STARLINK-6221,PAYLOAD,2024-06-07 16:16:09,14.98334545,0.0003092,69.9995,298.0732,270.6658,89.4147,0.00020471,2.351e-05,0.0,0 STARLINK-6221,1 56484U 23064AN  24159.67789048  .00002351  00000-0  20471-3 0  9990,2 56484  69.9995 298.0732 0003092 270.6658  89.4147 14.98334545 60235,6950.179,96.107,574.193,569.895,0.0
56484.0,STARLINK-6221,PAYLOAD,2024-06-08 11:29:46,14.98336885,0.0002883,70.0001,296.0533,272.2072,87.8757,0.00012138,1.356e-05,0.0,0 STARLINK-6221,1 56484U 23064AN  24160.47900981  .00001356  00000-0  12138-3 0  9996,2 56484  70.0001 296.0533 0002883 272.2072  87.8757 14.98336885 59997,6950.172,96.107,574.04,570.033,0.0
56484.0,STARLINK-6221,PAYLOAD,2024-06-09 01:54:58,14.9833904,0.0002891,70.0,294.5386,270.7849,89.2979,0.00012757,1.43e-05,0.0,0 STARLINK-6221,1 56484U 23064AN  24161.07984526  .00001430  00000-0  12757-3 0  9990,2 56484  70.0000 294.5386 0002891 270.7849  89.2979 14.98339040 60449,6950.165,96.106,574.039,570.021,0.0
56484.0,STARLINK-6221,PAYLOAD,2024-06-09 11:31:48,14.98303836,0.0005213,70.0003,293.5289,301.6279,58.4371,-0.00029069,-3.558e-05,0.0,0 STARLINK-6221,1 56484U 23064AN  24161.48042775 -.00003558  00000-0 -29069-3 0  9995,2 56484  70.0003 293.5289 0005213 301.6279  58.4371 14.98303836 60500,6950.274,96.109,575.762,568.516,0.0
56484.0,STARLINK-6221,PAYLOAD,2024-06-09 14:44:03,14.98330029,0.0003424,69.9962,293.187,269.0353,91.0413,-7.3267e-05,-9.67e-06,0.0,0 STARLINK-6221,1 56484U 23064AN  24161.61392435 -.00000967  00000-0 -73267-4 0  9992,2 56484  69.9962 293.1870 0003424 269.0353  91.0413 14.98330029 60161,6950.193,96.107,574.438,569.678,0.0
56484.0,STARLINK-6221,PAYLOAD,2024-06-10 01:56:58,14.98340247,0.0003009,69.9974,292.0118,271.8047,88.2768,9.9775e-05,1.098e-05,0.0,0 STARLINK-6221,1 56484U 23064AN  24162.08123224  .00001098  00000-0  99775-4 0  9998,2 56484  69.9974 292.0118 0003009 271.8047  88.2768 14.98340247 60598,6950.161,96.106,574.118,569.935,0.0
56484.0,STARLINK-6221,PAYLOAD,2024-06-10 13:09:56,14.9831817,0.0002794,70.0,290.8353,267.2784,92.8056,-0.00014428,-1.813e-05,0.0,0 STARLINK-6221,1 56484U 23064AN  24162.54857184 -.00001813  00000-0 -14428-3 0  9996,2 56484  70.0000 290.8353 0002794 267.2784  92.8056 14.98318170 60664,6950.229,96.108,574.036,570.153,0.0
56484.0,STARLINK-6221,PAYLOAD,2024-06-10 14:46:04,14.98320686,0.0003021,69.9994,290.6664,267.4508,92.6306,-0.0001367,-1.723e-05,0.0,0 STARLINK-6221,1 56484U 23064AN  24162.61533020 -.00001723  00000-0 -13670-3 0  9992,2 56484  69.9994 290.6664 0003021 267.4508  92.6306 14.98320686 60319,6950.222,96.108,574.186,569.987,0.0
56484.0,STARLINK-6221,PAYLOAD,2024-06-10 17:58:20,14.98320394,0.0002966,69.9997,290.33,266.319,93.763,-0.00012745,-1.613e-05,0.0,0 STARLINK-6221,1 56484U 23064AN  24162.74885088 -.00001613  00000-0 -12745-3 0  9990,2 56484  69.9997 290.3300 0002966 266.3190  93.7630 14.98320394 60338,6950.223,96.108,574.149,570.026,0.0
56484.0,STARLINK-6221,PAYLOAD,2024-06-11 01:59:00,14.98352148,0.0003243,69.9992,289.4871,271.6541,88.4246,-0.00058022,-7.013e-05,0.0,0 STARLINK-6221,1 56484U 23064AN  24163.08264158 -.00007013  00000-0 -58022-3 0  9995,2 56484  69.9992 289.4871 0003243 271.6541  88.4246 14.98352148 60744,6950.124,96.106,574.243,569.735,0.0
56484.0,STARLINK-6221,PAYLOAD,2024-06-11 13:11:56,14.98346827,0.000323,69.9992,288.3092,270.1901,89.8888,-0.00044783,-5.435e-05,0.0,0 STARLINK-6221,1 56484U 23064AN  24163.54995596 -.00005435  00000-0 -44783-3 0  9998,2 56484  69.9992 288.3092 0003230 270.1901  89.8888 14.98346827 60459,6950.141,96.106,574.251,569.761,0.0
56484.0,STARLINK-6221,PAYLOAD,2024-06-11 18:00:21,14.98323336,0.0003098,70.0006,287.8045,269.9418,90.1386,0.00047171,5.539e-05,0.0,0 STARLINK-6221,1 56484U 23064AN  24163.75024516  .00005539  00000-0  47171-3 0  9993,2 56484  70.0006 287.8045 0003098 269.9418  90.1386 14.98323336 60842,6950.213,96.107,574.232,569.925,0.0
56484.0,STARLINK-6221,PAYLOAD,2024-06-12 13:13:58,14.98316606,0.0002927,70.0012,285.7846,269.1116,90.9708,0.00029593,3.439e-05,0.0,0 STARLINK-6221,1 56484U 23064AN  24164.55137553  .00003439  00000-0  29593-3 0  9993,2 56484  70.0012 285.7846 0002927 269.1116  90.9708 14.98316606 60963,6950.234,96.108,574.134,570.065,0.0
56484.0,STARLINK-6221,PAYLOAD,2024-06-12 18:02:23,14.98319912,0.0002907,70.0013,285.2799,269.1396,90.943,0.00034859,4.068e-05,0.0,0 STARLINK-6221,1 56484U 23064AN  24164.75165594  .00004068  00000-0  34859-3 0  9991,2 56484  70.0013 285.2799 0002907 269.1396  90.9430 14.98319912 60633,6950.224,96.108,574.11,570.069,0.0
56484.0,STARLINK-6221,PAYLOAD,2024-06-13 13:15:59,14.98335863,0.0002949,70.0014,283.2597,269.8035,90.2786,0.00035239,4.115e-05,0.0,0 STARLINK-6221,1 56484U 23064AN  24165.55277020  .00004115  00000-0  35239-3 0  9994,2 56484  70.0014 283.2597 0002949 269.8035  90.2786 14.98335863 61115,6950.175,96.107,574.089,569.99,0.0
56484.0,STARLINK-6221,PAYLOAD,2024-06-13 14:52:07,14.98337169,0.0002964,70.0015,283.0932,263.0376,97.0446,0.00035255,4.117e-05,0.0,0 STARLINK-6221,1 56484U 23064AN  24165.61952903  .00004117  00000-0  35255-3 0  9991,2 56484  70.0015 283.0932 0002964 263.0376  97.0446 14.98337169 60767,6950.171,96.107,574.096,569.976,0.0
56484.0,STARLINK-6221,PAYLOAD,2024-06-13 18:04:23,14.98338138,0.000298,70.0015,282.7565,263.5212,96.5608,0.00035016,4.088e-05,0.0,0 STARLINK-6221,1 56484U 23064AN  24165.75304833  .00004088  00000-0  35016-3 0  9991,2 56484  70.0015 282.7565 0002980 263.5212  96.5608 14.98338138 60780,6950.168,96.106,574.104,569.962,0.0
56484.0,STARLINK-6221,PAYLOAD,2024-06-14 11:41:52,14.98333417,0.0002996,70.0012,280.9048,263.2118,96.87,0.00020628,2.369e-05,0.0,0 STARLINK-6221,1 56484U 23064AN  24166.48740988  .00002369  00000-0  20628-3 0  9990,2 56484  70.0012 280.9048 0002996 263.2118  96.8700 14.98333417 60895,6950.182,96.107,574.13,569.965,0.0
56484.0,STARLINK-6221,PAYLOAD,2024-06-14 18:06:24,14.98327752,0.000296,70.0008,280.2301,270.5366,89.5454,5.4474e-05,5.57e-06,0.0,0 STARLINK-6221,1 56484U 23064AN  24166.75445320  .00000557  00000-0  54474-4 0  9996,2 56484  70.0008 280.2301 0002960 270.5366  89.5454 14.98327752 60937,6950.2,96.107,574.122,570.008,0.0
56484.0,STARLINK-6221,PAYLOAD,2024-06-15 11:43:53,14.98334852,0.0003255,69.9999,278.3777,270.6319,89.4467,4.4087e-05,4.33e-06,0.0,0 STARLINK-6221,1 56484U 23064AN  24167.48880849  .00000433  00000-0  44087-4 0  9998,2 56484  69.9999 278.3777 0003255 270.6319  89.4467 14.98334852 61040,6950.178,96.107,574.305,569.781,0.0
56484.0,STARLINK-6221,PAYLOAD,2024-06-15 16:32:17,14.9833907,0.0003151,70.0005,277.8728,273.9168,86.1631,0.00016004,1.818e-05,0.0,0 STARLINK-6221,1 56484U 23064AN  24167.68908628  .00001818  00000-0  16004-3 0  9991,2 56484  70.0005 277.8728 0003151 273.9168  86.1631 14.98339070 61071,6950.165,96.106,574.22,569.84,0.0
56484.0,STARLINK-6221,PAYLOAD,2024-06-16 13:22:01,14.98338226,0.0003083,70.0005,275.6858,270.6227,89.4579,0.00021071,2.423e-05,0.0,0 STARLINK-6221,1 56484U 23064AN  24168.55696507  .00002423  00000-0  21071-3 0  9991,2 56484  70.0005 275.6858 0003083 270.6227  89.4579 14.98338226 61209,6950.167,96.106,574.175,569.89,0.0
56484.0,STARLINK-6221,PAYLOAD,2024-06-16 16:34:17,14.9833917,0.0003113,70.0005,275.3494,272.0723,88.008,0.00013505,1.519e-05,0.0,0 STARLINK-6221,1 56484U 23064AN  24168.69048414  .00001519  00000-0  13505-3 0  9992,2 56484  70.0005 275.3494 0003113 272.0723  88.0080 14.98339170 61226,6950.165,96.106,574.193,569.866,0.0
56484.0,STARLINK-6221,PAYLOAD,2024-06-17 13:24:03,14.98339888,0.0002958,70.0001,273.1618,269.285,90.797,-0.0002497,-3.072e-05,0.0,0 STARLINK-6221,1 56484U 23064AN  24169.55836927 -.00003072  00000-0 -24970-3 0  9998,2 56484  70.0001 273.1618 0002958 269.2850  90.7970 14.98339888 61719,6950.162,96.106,574.083,569.971,0.0
56484.0,STARLINK-6221,PAYLOAD,2024-06-18 13:26:03,14.98338046,0.0003067,69.9995,270.6346,269.3054,90.7753,0.00012865,1.443e-05,0.0,0 STARLINK-6221,1 56484U 23064AN  24170.55976266  .00001443  00000-0  12865-3 0  9999,2 56484  69.9995 270.6346 0003067 269.3054  90.7753 14.98338046 61867,6950.168,96.106,574.165,569.901,0.0
56484.0,STARLINK-6221,PAYLOAD,2024-06-18 15:02:11,14.98337097,0.0002975,69.9999,270.4676,268.4017,91.6801,0.00011956,1.334e-05,0.0,0 STARLINK-6221,1 56484U 23064AN  24170.62652339  .00001334  00000-0  11956-3 0  9998,2 56484  69.9999 270.4676 0002975 268.4017  91.6801 14.98337097 61512,6950.171,96.107,574.104,569.968,0.0
56484.0,STARLINK-6221,PAYLOAD,2024-06-19 05:27:24,14.9832772,0.0003127,69.9992,268.9519,270.1977,89.8824,0.00017072,1.944e-05,0.0,0 STARLINK-6221,1 56484U 23064AN  24171.22736745  .00001944  00000-0  17072-3 0  9991,2 56484  69.9992 268.9519 0003127 270.1977  89.8824 14.98327720 61963,6950.2,96.107,574.238,569.892,0.0
56484.0,STARLINK-6221,PAYLOAD,2024-06-19 13:28:04,14.98330225,0.0003057,69.9997,268.1105,269.3245,90.7564,0.00015027,1.7e-05,0.0,0 STARLINK-6221,1 56484U 23064AN  24171.56116734  .00001700  00000-0  15027-3 0  9996,2 56484  69.9997 268.1105 0003057 269.3245  90.7564 14.98330225 61653,6950.192,96.107,574.182,569.933,0.0
